{
  "type": "FeatureCollection",
  "features": [
    {
      "type": "Feature",
      "properties": {
        "id": "river-a",
        "severity": "high"
      },
      "geometry": {
        "type": "Polygon",
        "coordinates": [
          [
            [13.3900, 52.5100],
            [13.4100, 52.5100],
            [13.4100, 52.5300],
            [13.3900, 52.5300],
            [13.3900, 52.5100]
          ]
        ]
      }
    },
    {
      "type": "Feature",
      "properties": {
        "id": "river-b",
        "risk_level": "medium"
      },
      "geometry": {
        "type": "MultiPolygon",
        "coordinates": [
          [
            [
              [2.3400, 48.8500],
              [2.3600, 48.8500],
              [2.3600, 48.8650],
              [2.3400, 48.8650],
              [2.3400, 48.8500]
            ]
          ],
          [
            [
              [2.3700, 48.8700],
              [2.3850, 48.8700],
              [2.3850, 48.8850],
              [2.3700, 48.8850],
              [2.3700, 48.8700]
            ]
          ]
        ]
      }
    }
  ]
}
